ONEWEB-0283             
1 49001U 21060AL  26017.15538398  .00000025  00000+0  32331-4 0  9993
2 49001  87.9030 258.8528 0001410  71.8525 288.2759 13.16595587219749
ONEWEB-0284             
1 49002U 21060AM  26017.14905405 -.00000022  00000+0 -91414-4 0  9996
2 49002  87.9032 258.8438 0001298  92.4520 267.6760 13.16595099219729
ONEWEB-0285             
1 49075U 21075A   26017.26243956 -.00000406  00000+0 -11648-2 0  9996
2 49075  87.8928  20.6251 0001726  89.4750 270.6576 13.12441295215412
ONEWEB-0286             
1 49076U 21075B   26017.24522768 -.00000072  00000+0 -23613-3 0  9991
2 49076  87.8923  20.6594 0001971  89.7933 270.3421 13.12442704214765
ONEWEB-0287             
1 49077U 21075C   26017.28149660 -.00000014  00000+0 -69226-4 0  9999
2 49077  87.9089  35.8596 0002203  97.6889 262.4493 13.17648499213750
ONEWEB-0288             
1 49078U 21075D   26016.99293018  .00000501  00000+0  13585-2 0  9998
2 49078  87.8929  20.6735 0001745  92.1766 267.9562 13.12445390215359
ONEWEB-0289             
1 49079U 21075E   26017.32014831 -.00000845  00000+0 -22087-2 0  9991
2 49079  87.9082  35.8644 0001583 103.9422 256.1886 13.17652000214337
ONEWEB-0290             
1 49080U 21075F   26017.29330316  .00000036  00000+0  58657-4 0  9992
2 49080  87.9093  35.8344 0001257 102.0896 258.0376 13.17650861213743
